STARLINK-32636          
1 62232U 24231Q   26166.15028034  .00023339  00000+0  79692-3 0  9996
2 62232  53.1571 126.6863 0001415  49.5615 310.5509 15.30229841 86699
STARLINK-32643          
1 62233U 24231R   26166.12616283  .00019483  00000+0  63762-3 0  9999
2 62233  53.1596 113.7519 0001399  74.9647 285.1509 15.31716302 86860
STARLINK-32652          
1 62234U 24231S   26166.36944907  .00015949  00000+0  54936-3 0  9999
2 62234  53.1577 125.9098 0001224  87.8961 272.2180 15.30205491 86713
STARLINK-32631          
1 62235U 24231T   26166.56422551  .00024243  00000+0  78882-3 0  9991
2 62235  53.1590 111.5078 0002544  78.8517 281.2770 15.31765600 86934
STARLINK-32641          
1 62236U 24231U   26166.56799248  .00004889  00000+0  17698-3 0  9994
2 62236  53.1603 112.2340 0001396  89.3049 270.8112 15.30217617 86923
QIANFAN-37              
1 62238U 24232B   26166.55829001  .00000102  00000+0  13933-3 0  9999
2 62238  89.0073  22.7487 0001438  76.4237 283.7074 13.51008659124124
QIANFAN-38              
1 62239U 24232C   26166.58296042  .00000089  00000+0  11988-3 0  9998
2 62239  89.0080  22.6746 0015573  28.0435 332.1552 13.51005724124184
QIANFAN-39              
1 62240U 24232D   26166.60564417  .00000243  00000+0  96394-4 0  9994
2 62240  89.0060  16.2471 0015601 184.8132 175.2914 14.25525302127727
QIANFAN-40              
1 62241U 24232E   26166.61586885  .00000087  00000+0  11587-3 0  9995
2 62241  89.0107  22.3075 0014839  35.7516 324.4625 13.51007428124557
QIANFAN-41              
1 62242U 24232F   26166.62414146  .00000098  00000+0  13315-3 0  9990
2 62242  89.0077  22.6187 0014858  24.5505 335.6350 13.51009735124211
QIANFAN-42              
1 62243U 24232G   26166.58091844  .00000220  00000+0  88355-4 0  9996
2 62243  89.0058  16.3245 0014195 191.2105 168.8773 14.24614302127680
QIANFAN-43              
1 62244U 24232H   26166.62001914  .00000094  00000+0  12761-3 0  9997
2 62244  89.0082  22.6925 0016546  28.7840 331.4220 13.51009501 92825
QIANFAN-44              
1 62245U 24232J   26166.60765805  .00000087  00000+0  11583-3 0  9995
2 62245  89.0080  22.5015 0014687  26.8365 333.3543 13.51011538124297
QIANFAN-45              
1 62246U 24232K   26166.57478120  .00000080  00000+0  10536-3 0  9993
2 62246  89.0084  22.6579 0015333  26.2790 333.9136 13.51009022124214
QIANFAN-46              
1 62247U 24232L   26166.59945354  .00000091  00000+0  12246-3 0  9996
2 62247  89.0080  22.7168 0015550  31.3194 328.8881 13.51009857124173
QIANFAN-47              
1 62248U 24232M   26166.60356506  .00000093  00000+0  12570-3 0  9996
2 62248  89.0076  22.6420 0015952  30.3353 329.8718 13.51008605124205
QIANFAN-48              
1 62249U 24232N   26166.64055683  .00000091  00000+0  12282-3 0  9991
2 62249  89.0080  22.6473 0018269  31.8727 328.3525 13.51013168124215
QIANFAN-49              
1 62250U 24232P   26166.55416597  .00000100  00000+0  13609-3 0  9993
2 62250  89.0079  22.6670 0015208  28.1550 332.0420 13.51011818 92790
QIANFAN-50              
1 62251U 24232Q   26166.57888949  .00000092  00000+0  12368-3 0  9991
2 62251  89.0084  22.6827 0016896  28.6602 331.5474 13.51008660 92826
QIANFAN-51              
1 62252U 24232R   26166.56239002  .00000092  00000+0  12336-3 0  9996
2 62252  89.0078  22.6669 0014512  33.1745 327.0314 13.51005406 92813
QIANFAN-52              
1 62253U 24232S   26166.59119791  .00000105  00000+0  14409-3 0  9990
2 62253  89.0074  22.5305 0016269  24.9863 335.2072 13.51010923 92908
QIANFAN-53              
1 62254U 24232T   26166.57060651  .00000078  00000+0  10171-3 0  9990
2 62254  89.0082  22.6510 0015192  26.5908 333.6019 13.51007829 92868
QIANFAN-54              
1 62255U 24232U   26166.61175595  .00000088  00000+0  11826-3 0  9999
2 62255  89.0072  22.3090 0004077  73.0948 287.0650 13.51011820124370
PROBA-3 OSC             
1 62258U 24233C   26157.65969765 -.00000216  00000+0 -10474-1 0  9998
2 62258  59.7091  98.3571 8003821 205.2899  69.6324  1.22074141  6688
SXM-9                   
1 62259U 24234A   26166.17089873 -.00000201  00000+0  00000+0 0  9995
2 62259   0.0154 329.8046 0005128 344.6729 285.3514  1.00271431  5551
SENTINEL-1C             
1 62261U 24235A   26166.62090135 -.00000004  00000+0  88494-5 0  9992
2 62261  98.1820 173.9551 0001358  89.8271 270.3084 14.58603709 81185
STARLINK-32632          
1 62262U 24231V   26166.17589685  .00021309  00000+0  69610-3 0  9999
2 62262  53.1579 126.8373 0001252 119.4591 240.6535 15.31717098 86696
STARLINK-11496 [DTC]    
1 62267U 24237A   26165.36896395  .00193150  00000+0  14741-2 0  9997
2 62267  42.9982 194.1996 0001583 257.0808 102.9883 15.70838654 88256
STARLINK-11501 [DTC]    
1 62268U 24237B   26166.35444282  .00147756  00000+0  11188-2 0  9995
2 62268  42.9888 187.8043 0009461 114.8623 245.3229 15.71122380 88363
STARLINK-11491 [DTC]    
1 62269U 24237C   26165.77690634  .00157429  00000+0  11981-2 0  9994
2 62269  42.9992 191.2175 0003766  59.6899 300.4341 15.71017275 88328
