OBJECT_NAME,OBJECT_ID,EPOCH,MEAN_MOTION,ECCENTRICITY,INCLINATION,RA_OF_ASC_NODE,ARG_OF_PERICENTER,MEAN_ANOMALY,EPHEMERIS_TYPE,CLASSIFICATION_TYPE,NORAD_CAT_ID,ELEMENT_SET_NO,REV_AT_EPOCH,BSTAR,MEAN_MOTION_DOT,MEAN_MOTION_DDOT
STARLINK-32636,2024-231Q,2026-06-15T03:36:24.221376,15.30229841,.00014157,53.1571,126.6863,49.5615,310.5509,0,U,62232,999,8669,.79692364E-3,.23339E-3,0
STARLINK-32643,2024-231R,2026-06-15T03:01:40.468512,15.31716302,.00013995,53.1596,113.7519,74.9647,285.1509,0,U,62233,999,8686,.63762086E-3,.19483E-3,0
STARLINK-32652,2024-231S,2026-06-15T08:52:00.399648,15.30205491,.00012243,53.1577,125.9098,87.8961,272.2180,0,U,62234,999,8671,.54936018E-3,.15949E-3,0
STARLINK-32631,2024-231T,2026-06-15T13:32:29.084064,15.31765600,.00025443,53.1590,111.5078,78.8517,281.2770,0,U,62235,999,8693,.78882009E-3,.24243E-3,0
STARLINK-32641,2024-231U,2026-06-15T13:37:54.550272,15.30217617,.00013965,53.1603,112.2340,89.3049,270.8112,0,U,62236,999,8692,.17697894E-3,.4889E-4,0
QIANFAN-37,2024-232B,2026-06-15T13:23:56.256864,13.51008659,.00014388,89.0073,22.7487,76.4237,283.7074,0,U,62238,999,12412,.13932685E-3,.102E-5,0
QIANFAN-38,2024-232C,2026-06-15T13:59:27.780288,13.51005724,.00155738,89.0080,22.6746,28.0435,332.1552,0,U,62239,999,12418,.11988282E-3,.89E-6,0
QIANFAN-39,2024-232D,2026-06-15T14:32:07.656288,14.25525302,.00156019,89.0060,16.2471,184.8132,175.2914,0,U,62240,999,12772,.96393879E-4,.243E-5,0
QIANFAN-40,2024-232E,2026-06-15T14:46:51.068640,13.51007428,.00148392,89.0107,22.3075,35.7516,324.4625,0,U,62241,999,12455,.11586585E-3,.87E-6,0
QIANFAN-41,2024-232F,2026-06-15T14:58:45.822144,13.51009735,.00148581,89.0077,22.6187,24.5505,335.6350,0,U,62242,999,12421,.13314611E-3,.98E-6,0
QIANFAN-42,2024-232G,2026-06-15T13:56:31.353216,14.24614302,.00141957,89.0058,16.3245,191.2105,168.8773,0,U,62243,999,12768,.88355313E-4,.22E-5,0
QIANFAN-43,2024-232H,2026-06-15T14:52:49.653696,13.51009501,.00165469,89.0082,22.6925,28.7840,331.4220,0,U,62244,999,9282,.1276146E-3,.94E-6,0
QIANFAN-44,2024-232J,2026-06-15T14:35:01.655520,13.51011538,.00146878,89.0080,22.5015,26.8365,333.3543,0,U,62245,999,12429,.11583163E-3,.87E-6,0
QIANFAN-45,2024-232K,2026-06-15T13:47:41.095680,13.51009022,.00153335,89.0084,22.6579,26.2790,333.9136,0,U,62246,999,12421,.10535633E-3,.8E-6,0
QIANFAN-46,2024-232L,2026-06-15T14:23:12.785856,13.51009857,.001555,89.0080,22.7168,31.3194,328.8881,0,U,62247,999,12417,.12245972E-3,.91E-6,0
QIANFAN-47,2024-232M,2026-06-15T14:29:08.021184,13.51008605,.00159528,89.0076,22.6420,30.3353,329.8718,0,U,62248,999,12420,.12569581E-3,.93E-6,0
QIANFAN-48,2024-232N,2026-06-15T15:22:24.110112,13.51013168,.0018269,89.0080,22.6473,31.8727,328.3525,0,U,62249,999,12421,.12281801E-3,.91E-6,0
QIANFAN-49,2024-232P,2026-06-15T13:17:59.939808,13.51011818,.00152081,89.0079,22.6670,28.1550,332.0420,0,U,62250,999,9279,.13608938E-3,.1E-5,0
QIANFAN-50,2024-232Q,2026-06-15T13:53:36.051936,13.51008660,.00168966,89.0084,22.6827,28.6602,331.5474,0,U,62251,999,9282,.12367861E-3,.92E-6,0
QIANFAN-51,2024-232R,2026-06-15T13:29:50.497728,13.51005406,.00145128,89.0078,22.6669,33.1745,327.0314,0,U,62252,999,9281,.12336172E-3,.92E-6,0
QIANFAN-52,2024-232S,2026-06-15T14:11:19.499424,13.51010923,.00162696,89.0074,22.5305,24.9863,335.2072,0,U,62253,999,9290,.1440855E-3,.105E-5,0
QIANFAN-53,2024-232T,2026-06-15T13:41:40.402464,13.51007829,.00151928,89.0082,22.6510,26.5908,333.6019,0,U,62254,999,9286,.10171307E-3,.78E-6,0
QIANFAN-54,2024-232U,2026-06-15T14:40:55.714080,13.51011820,.00040777,89.0072,22.3090,73.0948,287.0650,0,U,62255,999,12437,.11826339E-3,.88E-6,0
PROBA-3 OSC,2024-233C,2026-06-06T15:49:57.876960,1.22074141,.8003821,59.7091,98.3571,205.2899,69.6324,0,U,62258,999,668,-.10473668E-1,-.216E-5,0
SXM-9,2024-234A,2026-06-15T04:06:05.650272,1.00271431,.00051282,0.0154,329.8046,344.6729,285.3514,0,U,62259,999,555,0,-.201E-5,0
SENTINEL-1C,2024-235A,2026-06-15T14:54:05.876640,14.58603709,.0001358,98.1820,173.9551,89.8271,270.3084,0,U,62261,999,8118,.8849423E-5,-.4E-7,0
STARLINK-32632,2024-231V,2026-06-15T04:13:17.487840,15.31717098,.00012521,53.1579,126.8373,119.4591,240.6535,0,U,62262,999,8669,.69610147E-3,.21309E-3,0
STARLINK-11496 [DTC],2024-237A,2026-06-14T08:51:18.485280,15.70838654,.00015837,42.9982,194.1996,257.0808,102.9883,0,U,62267,999,8825,.14741205E-2,.19315E-2,0
STARLINK-11501 [DTC],2024-237B,2026-06-15T08:30:23.859648,15.71122380,.00094616,42.9888,187.8043,114.8623,245.3229,0,U,62268,999,8836,.11187958E-2,.147756E-2,0
STARLINK-11491 [DTC],2024-237C,2026-06-14T18:38:44.707776,15.71017275,.00037669,42.9992,191.2175,59.6899,300.4341,0,U,62269,999,8832,.1198064E-2,.157429E-2,0
